start=new Date('2023-06-09T00:00:00.000Z').valueOf();
sats=[{"RA_OF_ASC_NODE":"33.5903","NORAD_CAT_ID":"48487","MEAN_ELEMENT_THEORY":"SGP4","ARG_OF_PERICENTER":"101.7322","ECCENTRICITY":"0.00029190","DECAY_DATE":null,"OBJECT_TYPE":"PAYLOAD","INCLINATION":"53.0541","OBJECT_NAME":"STARLINK-2494","MEAN_MOTION_DOT":"0.00016038","TLE_LINE1":"1 48487U 21040BM  23159.61243338  .00016038  00000-0  10930-2 0  9991","LAUNCH_DATE":"2021-05-09","GP_ID":"233479899","BSTAR":"0.00109300000000","EPOCH":"2023-06-08T14:41:54.244032","SITE":"AFETR","EPHEMERIS_TYPE":"0","CENTER_NAME":"EARTH","SEMIMAJOR_AXIS":"6925.340","TLE_LINE2":"2 48487  53.0541  33.5903 0002919 101.7322 258.3994 15.06402818116149","PERIOD":"95.592","REV_AT_EPOCH":"11614","TIME_SYSTEM":"UTC","PERIAPSIS":"545.183","APOAPSIS":"549.226","CLASSIFICATION_TYPE":"U","OBJECT_ID":"2021-040BM","ELEMENT_SET_NO":"999","COUNTRY_CODE":"US","REF_FRAME":"TEME","MEAN_MOTION_DDOT":"0.0000000000000","FILE":"3928132","RCS_SIZE":"LARGE","MEAN_MOTION":"15.06402818","MEAN_ANOMALY":"258.3994"},{"OBJECT_TYPE":"PAYLOAD","DECAY_DATE":null,"ECCENTRICITY":"0.00013710","MEAN_MOTION_DOT":"0.00013191","TLE_LINE1":"1 48553U 21041A   23159.58940430  .00013191  00000-0  90315-3 0  9992","LAUNCH_DATE":"2021-05-15","INCLINATION":"53.0530","OBJECT_NAME":"STARLINK-2063","MEAN_ELEMENT_THEORY":"SGP4","RA_OF_ASC_NODE":"323.6917","NORAD_CAT_ID":"48553","ARG_OF_PERICENTER":"77.6509","CLASSIFICATION_TYPE":"U","PERIAPSIS":"546.308","APOAPSIS":"548.207","COUNTRY_CODE":"US","OBJECT_ID":"2021-041A","ELEMENT_SET_NO":"999","TLE_LINE2":"2 48553  53.0530 323.6917 0001371  77.6509 282.4633 15.06385597113710","REV_AT_EPOCH":"11371","PERIOD":"95.593","TIME_SYSTEM":"UTC","RCS_SIZE":"LARGE","MEAN_ANOMALY":"282.4633","MEAN_MOTION":"15.06385597","MEAN_MOTION_DDOT":"0.0000000000000","FILE":"3928201","REF_FRAME":"TEME","BSTAR":"0.00090315000000","SITE":"AFETR","EPOCH":"2023-06-08T14:08:44.531520","GP_ID":"233501809","SEMIMAJOR_AXIS":"6925.393","EPHEMERIS_TYPE":"0","CENTER_NAME":"EARTH"},{"ARG_OF_PERICENTER":"97.7972","RA_OF_ASC_NODE":"324.2516","NORAD_CAT_ID":"48554","MEAN_ELEMENT_THEORY":"SGP4","INCLINATION":"53.0552","OBJECT_NAME":"STARLINK-2139","MEAN_MOTION_DOT":"0.00012928","TLE_LINE1":"1 48554U 21041B   23159.46407964  .00012928  00000-0  88528-3 0  9990","LAUNCH_DATE":"2021-05-15","ECCENTRICITY":"0.00016660","DECAY_DATE":null,"OBJECT_TYPE":"PAYLOAD","EPHEMERIS_TYPE":"0","CENTER_NAME":"EARTH","SEMIMAJOR_AXIS":"6925.361","GP_ID":"233470402","BSTAR":"0.00088528000000","SITE":"AFETR","EPOCH":"2023-06-08T11:08:16.480896","FILE":"3928007","MEAN_MOTION_DDOT":"0.0000000000000","REF_FRAME":"TEME","RCS_SIZE":"LARGE","MEAN_ANOMALY":"262.3207","MEAN_MOTION":"15.06396068","TLE_LINE2":"2 48554  53.0552 324.2516 0001666  97.7972 262.3207 15.06396068113697","REV_AT_EPOCH":"11369","PERIOD":"95.592","TIME_SYSTEM":"UTC","CLASSIFICATION_TYPE":"U","PERIAPSIS":"546.072","APOAPSIS":"548.379","COUNTRY_CODE":"US","ELEMENT_SET_NO":"999","OBJECT_ID":"2021-041B"},{"APOAPSIS":"547.854","PERIAPSIS":"546.552","CLASSIFICATION_TYPE":"U","OBJECT_ID":"2021-041C","ELEMENT_SET_NO":"999","COUNTRY_CODE":"US","PERIOD":"95.592","TLE_LINE2":"2 48555  53.0552 335.3148 0000940  79.4253 280.6842 15.06403514113519","REV_AT_EPOCH":"11351","TIME_SYSTEM":"UTC","RCS_SIZE":"LARGE","MEAN_MOTION":"15.06403514","MEAN_ANOMALY":"280.6842","REF_FRAME":"TEME","MEAN_MOTION_DDOT":"0.0000000000000","FILE":"3928007","BSTAR":"0.00039208000000","EPOCH":"2023-06-08T05:27:14.749920","SITE":"AFETR","GP_ID":"233470652","SEMIMAJOR_AXIS":"6925.338","EPHEMERIS_TYPE":"0","CENTER_NAME":"EARTH","OBJECT_TYPE":"PAYLOAD","DECAY_DATE":null,"ECCENTRICITY":"0.00009400","MEAN_MOTION_DOT":"0.00005564","LAUNCH_DATE":"2021-05-15","TLE_LINE1":"1 48555U 21041C   23159.22725405  .00005564  00000-0  39208-3 0  9997","INCLINATION":"53.0552","OBJECT_NAME":"STARLINK-2145","MEAN_ELEMENT_THEORY":"SGP4","RA_OF_ASC_NODE":"335.3148","NORAD_CAT_ID":"48555","ARG_OF_PERICENTER":"79.4253"},{"GP_ID":"233502061","BSTAR":"-0.00667640000000","EPOCH":"2023-06-08T17:55:41.038464","SITE":"AFETR","EPHEMERIS_TYPE":"0","CENTER_NAME":"EARTH","SEMIMAJOR_AXIS":"6925.876","PERIOD":"95.603","TLE_LINE2":"2 48556  53.0537 332.9800 0001765  51.3984 308.7163 15.06228038113599","REV_AT_EPOCH":"11359","TIME_SYSTEM":"UTC","APOAPSIS":"548.963","PERIAPSIS":"546.518","CLASSIFICATION_TYPE":"U","ELEMENT_SET_NO":"999","OBJECT_ID":"2021-041D","COUNTRY_CODE":"US","REF_FRAME":"TEME","MEAN_MOTION_DDOT":"0.0000000000000","FILE":"3928201","RCS_SIZE":"LARGE","MEAN_MOTION":"15.06228038","MEAN_ANOMALY":"308.7163","RA_OF_ASC_NODE":"332.9800","NORAD_CAT_ID":"48556","MEAN_ELEMENT_THEORY":"SGP4","ARG_OF_PERICENTER":"51.3984","DECAY_DATE":null,"ECCENTRICITY":"0.00017650","OBJECT_TYPE":"PAYLOAD","INCLINATION":"53.0537","OBJECT_NAME":"STARLINK-2151","MEAN_MOTION_DOT":"-0.00097915","LAUNCH_DATE":"2021-05-15","TLE_LINE1":"1 48556U 21041D   23159.74700276 -.00097915  00000-0 -66764-2 0  9993"},{"REV_AT_EPOCH":"11369","TLE_LINE2":"2 48557  53.0552 324.1534 0002324  78.9948 281.1302 15.06410289113692","PERIOD":"95.591","TIME_SYSTEM":"UTC","APOAPSIS":"548.791","PERIAPSIS":"545.573","CLASSIFICATION_TYPE":"U","ELEMENT_SET_NO":"999","OBJECT_ID":"2021-041E","COUNTRY_CODE":"US","REF_FRAME":"TEME","MEAN_MOTION_DDOT":"0.0000000000000","FILE":"3928007","RCS_SIZE":"LARGE","MEAN_MOTION":"15.06410289","MEAN_ANOMALY":"281.1302","GP_ID":"233471652","BSTAR":"0.00147610000000","EPOCH":"2023-06-08T11:40:07.794912","SITE":"AFETR","EPHEMERIS_TYPE":"0","CENTER_NAME":"EARTH","SEMIMAJOR_AXIS":"6925.317","DECAY_DATE":null,"ECCENTRICITY":"0.00023240","OBJECT_TYPE":"PAYLOAD","INCLINATION":"53.0552","OBJECT_NAME":"STARLINK-2155","MEAN_MOTION_DOT":"0.00021780","LAUNCH_DATE":"2021-05-15","TLE_LINE1":"1 48557U 21041E   23159.48620133  .00021780  00000-0  14761-2 0  9993","RA_OF_ASC_NODE":"324.1534","NORAD_CAT_ID":"48557","MEAN_ELEMENT_THEORY":"SGP4","ARG_OF_PERICENTER":"78.9948"},{"SEMIMAJOR_AXIS":"6925.388","CENTER_NAME":"EARTH","EPHEMERIS_TYPE":"0","EPOCH":"2023-06-08T17:56:57.883488","SITE":"AFETR","BSTAR":"0.00091465000000","GP_ID":"233502562","MEAN_MOTION":"15.06387092","MEAN_ANOMALY":"272.4652","RCS_SIZE":"LARGE","REF_FRAME":"TEME","MEAN_MOTION_DDOT":"0.0000000000000","FILE":"3928201","OBJECT_ID":"2021-041F","ELEMENT_SET_NO":"999","COUNTRY_CODE":"US","APOAPSIS":"547.964","PERIAPSIS":"546.542","CLASSIFICATION_TYPE":"U","TIME_SYSTEM":"UTC","PERIOD":"95.593","TLE_LINE2":"2 48558  53.0544 322.9755 0001027  87.6454 272.4652 15.06387092112878","REV_AT_EPOCH":"11287","ARG_OF_PERICENTER":"87.6454","MEAN_ELEMENT_THEORY":"SGP4","NORAD_CAT_ID":"48558","RA_OF_ASC_NODE":"322.9755","LAUNCH_DATE":"2021-05-15","TLE_LINE1":"1 48558U 21041F   23159.74789217  .00013364  00000-0  91465-3 0  9998","MEAN_MOTION_DOT":"0.00013364","OBJECT_NAME":"STARLINK-2166","INCLINATION":"53.0544","OBJECT_TYPE":"PAYLOAD","ECCENTRICITY":"0.00010270","DECAY_DATE":null},{"RCS_SIZE":"LARGE","MEAN_MOTION":"15.06383156","MEAN_ANOMALY":"268.8932","REF_FRAME":"TEME","FILE":"3928201","MEAN_MOTION_DDOT":"0.0000000000000","PERIAPSIS":"546.312","APOAPSIS":"548.219","CLASSIFICATION_TYPE":"U","OBJECT_ID":"2021-041G","ELEMENT_SET_NO":"999","COUNTRY_CODE":"US","TLE_LINE2":"2 48559  53.0534 323.7081 0001377  91.2215 268.8932 15.06383156113703","REV_AT_EPOCH":"11370","PERIOD":"95.593","TIME_SYSTEM":"UTC","SEMIMAJOR_AXIS":"6925.400","EPHEMERIS_TYPE":"0","CENTER_NAME":"EARTH","BSTAR":"0.00058232000000","EPOCH":"2023-06-08T14:02:04.410528","SITE":"AFETR","GP_ID":"233502811","MEAN_MOTION_DOT":"0.00008399","TLE_LINE1":"1 48559U 21041G   23159.58477327  .00008399  00000-0  58232-3 0  9994","LAUNCH_DATE":"2021-05-15","INCLINATION":"53.0534","OBJECT_NAME":"STARLINK-2167","OBJECT_TYPE":"PAYLOAD","ECCENTRICITY":"0.00013770","DECAY_DATE":null,"ARG_OF_PERICENTER":"91.2215","MEAN_ELEMENT_THEORY":"SGP4","RA_OF_ASC_NODE":"323.7081","NORAD_CAT_ID":"48559"},{"CENTER_NAME":"EARTH","EPHEMERIS_TYPE":"0","SEMIMAJOR_AXIS":"6925.384","GP_ID":"233501560","SITE":"AFETR","EPOCH":"2023-06-08T17:34:27.488640","BSTAR":"0.00170010000000","FILE":"3928201","MEAN_MOTION_DDOT":"0.0000000000000","REF_FRAME":"TEME","MEAN_ANOMALY":"264.9307","MEAN_MOTION":"15.06388539","RCS_SIZE":"LARGE","TIME_SYSTEM":"UTC","TLE_LINE2":"2 48561  53.0531 293.3309 0000869  95.1781 264.9307 15.06388539114157","PERIOD":"95.593","REV_AT_EPOCH":"11415","COUNTRY_CODE":"US","OBJECT_ID":"2021-041J","ELEMENT_SET_NO":"999","CLASSIFICATION_TYPE":"U","PERIAPSIS":"546.647","APOAPSIS":"547.851","ARG_OF_PERICENTER":"95.1781","NORAD_CAT_ID":"48561","RA_OF_ASC_NODE":"293.3309","MEAN_ELEMENT_THEORY":"SGP4","OBJECT_NAME":"STARLINK-2186","INCLINATION":"53.0531","TLE_LINE1":"1 48561U 21041J   23159.73226260  .00025124  00000-0  17001-2 0  9995","LAUNCH_DATE":"2021-05-15","MEAN_MOTION_DOT":"0.00025124","DECAY_DATE":null,"ECCENTRICITY":"0.00008690","OBJECT_TYPE":"PAYLOAD"},{"OBJECT_NAME":"STARLINK-2187","INCLINATION":"53.0533","TLE_LINE1":"1 48562U 21041K   23159.19500148  .00001999  00000-0  15307-3 0  9998","LAUNCH_DATE":"2021-05-15","MEAN_MOTION_DOT":"0.00001999","DECAY_DATE":null,"ECCENTRICITY":"0.00026010","OBJECT_TYPE":"PAYLOAD","ARG_OF_PERICENTER":"90.6912","NORAD_CAT_ID":"48562","RA_OF_ASC_NODE":"325.4608","MEAN_ELEMENT_THEORY":"SGP4","MEAN_MOTION_DDOT":"0.0000000000000","FILE":"3928007","REF_FRAME":"TEME","MEAN_ANOMALY":"269.4375","MEAN_MOTION":"15.06407993","RCS_SIZE":"LARGE","TIME_SYSTEM":"UTC","TLE_LINE2":"2 48562  53.0533 325.4608 0002601  90.6912 269.4375 15.06407993113656","PERIOD":"95.592","REV_AT_EPOCH":"11365","COUNTRY_CODE":"US","ELEMENT_SET_NO":"999","OBJECT_ID":"2021-041K","CLASSIFICATION_TYPE":"U","APOAPSIS":"548.990","PERIAPSIS":"545.388","CENTER_NAME":"EARTH","EPHEMERIS_TYPE":"0","SEMIMAJOR_AXIS":"6925.324","GP_ID":"233472153","SITE":"AFETR","EPOCH":"2023-06-08T04:40:48.127872","BSTAR":"0.00015307000000"}];
